{
  "type": "FeatureCollection",
  "features": [
    {
      "type": "Feature",
      "properties": {
        "norad_id": 30073,
        "name": "FENGYUN 1C DEB",
        "group": "fengyun-1c-debris",
        "lat": -37.34258391566765,
        "lon": 135.91720160445303,
        "alt_km": 813.4329272030818,
        "timestamp": "2025-12-15T20:48:54.157040+00:00",
        "meta_object_name": "FENGYUN 1C DEB",
        "meta_object_id": "1999-025QA",
        "meta_epoch": "2025-12-14T21:54:18.530208",
        "meta_mean_motion": 14.18682282,
        "meta_eccentricity": 0.00533611,
        "meta_inclination": 99.4113,
        "meta_ra_of_asc_node": 322.1749,
        "meta_arg_of_pericenter": 274.6674,
        "meta_mean_anomaly": 111.0675,
        "meta_ephemeris_type": 0,
        "meta_classification_type": "U",
        "meta_norad_cat_id": 30073,
        "meta_element_set_no": 999,
        "meta_rev_at_epoch": 96956,
        "meta_bstar": 0.0012441095,
        "meta_mean_motion_dot": 2.568e-05,
        "meta_mean_motion_ddot": 0,
        "tle_line1": "1 30073U 99025QA  25348.91271447  .00002568  00000+0  12441-2 0  9999",
        "tle_line2": "2 30073  99.4113 322.1749 0053361 274.6674 111.0675 14.18682282969562"
      },
      "geometry": {
        "type": "Point",
        "coordinates": [
          135.91720160445303,
          -37.34258391566765
        ]
      }
    },
    {
      "type": "Feature",
      "properties": {
        "norad_id": 30074,
        "name": "FENGYUN 1C DEB",
        "group": "fengyun-1c-debris",
        "lat": -80.78648739157249,
        "lon": 153.7005484699738,
        "alt_km": 897.3865270847618,
        "timestamp": "2025-12-15T20:48:54.157050+00:00",
        "meta_object_name": "FENGYUN 1C DEB",
        "meta_object_id": "1999-025QB",
        "meta_epoch": "2025-12-12T15:04:15.192768",
        "meta_mean_motion": 14.12854536,
        "meta_eccentricity": 0.00973643,
        "meta_inclination": 99.1296,
        "meta_ra_of_asc_node": 52.8629,
        "meta_arg_of_pericenter": 152.2511,
        "meta_mean_anomaly": 208.3903,
        "meta_ephemeris_type": 0,
        "meta_classification_type": "U",
        "meta_norad_cat_id": 30074,
        "meta_element_set_no": 999,
        "meta_rev_at_epoch": 96660,
        "meta_bstar": 0.002331931,
        "meta_mean_motion_dot": 4.493e-05,
        "meta_mean_motion_ddot": 0,
        "tle_line1": "1 30074U 99025QB  25346.62795362  .00004493  00000+0  23319-2 0  9998",
        "tle_line2": "2 30074  99.1296  52.8629 0097364 152.2511 208.3903 14.12854536966601"
      },
      "geometry": {
        "type": "Point",
        "coordinates": [
          153.7005484699738,
          -80.78648739157249
        ]
      }
    },
    {
      "type": "Feature",
      "properties": {
        "norad_id": 30075,
        "name": "FENGYUN 1C DEB",
        "group": "fengyun-1c-debris",
        "lat": 45.87012967787339,
        "lon": -129.99592039903803,
        "alt_km": 861.2646194112976,
        "timestamp": "2025-12-15T20:48:54.157060+00:00",
        "meta_object_name": "FENGYUN 1C DEB",
        "meta_object_id": "1999-025QC",
        "meta_epoch": "2025-12-14T09:47:47.975424",
        "meta_mean_motion": 13.92533758,
        "meta_eccentricity": 0.00911265,
        "meta_inclination": 99.3618,
        "meta_ra_of_asc_node": 38.7391,
        "meta_arg_of_pericenter": 172.5667,
        "meta_mean_anomaly": 210.5796,
        "meta_ephemeris_type": 0,
        "meta_classification_type": "U",
        "meta_norad_cat_id": 30075,
        "meta_element_set_no": 999,
        "meta_rev_at_epoch": 96088,
        "meta_bstar": 7.8270644e-05,
        "meta_mean_motion_dot": 5.9e-07,
        "meta_mean_motion_ddot": 0,
        "tle_line1": "1 30075U 99025QC  25348.40819416  .00000059  00000+0  78271-4 0  9997",
        "tle_line2": "2 30075  99.3618  38.7391 0091126 172.5667 210.5796 13.92533758960884"
      },
      "geometry": {
        "type": "Point",
        "coordinates": [
          -129.99592039903803,
          45.87012967787339
        ]
      }
    },
    {
      "type": "Feature",
      "properties": {
        "norad_id": 30076,
        "name": "FENGYUN 1C DEB",
        "group": "fengyun-1c-debris",
        "lat": 4.841150065552383,
        "lon": -24.288423801933366,
        "alt_km": 956.005978016271,
        "timestamp": "2025-12-15T20:48:54.157070+00:00",
        "meta_object_name": "FENGYUN 1C DEB",
        "meta_object_id": "1999-025QD",
        "meta_epoch": "2025-12-14T22:22:09.204672",
        "meta_mean_motion": 13.76292196,
        "meta_eccentricity": 0.01757235,
        "meta_inclination": 99.2383,
        "meta_ra_of_asc_node": 335.5937,
        "meta_arg_of_pericenter": 88.1166,
        "meta_mean_anomaly": 327.5484,
        "meta_ephemeris_type": 0,
        "meta_classification_type": "U",
        "meta_norad_cat_id": 30076,
        "meta_element_set_no": 999,
        "meta_rev_at_epoch": 94924,
        "meta_bstar": 0.00032299968,
        "meta_mean_motion_dot": 3.11e-06,
        "meta_mean_motion_ddot": 0,
        "tle_line1": "1 30076U 99025QD  25348.93205098  .00000311  00000+0  32300-3 0  9994",
        "tle_line2": "2 30076  99.2383 335.5937 0175723  88.1166 327.5484 13.76292196949249"
      },
      "geometry": {
        "type": "Point",
        "coordinates": [
          -24.288423801933366,
          4.841150065552383
        ]
      }
    },
    {
      "type": "Feature",
      "properties": {
        "norad_id": 30077,
        "name": "FENGYUN 1C DEB",
        "group": "fengyun-1c-debris",
        "lat": -78.78833170598014,
        "lon": 56.47711436788354,
        "alt_km": 862.968266677065,
        "timestamp": "2025-12-15T20:48:54.157091+00:00",
        "meta_object_name": "FENGYUN 1C DEB",
        "meta_object_id": "1999-025QE",
        "meta_epoch": "2025-12-14T21:52:38.081568",
        "meta_mean_motion": 14.07080202,
        "meta_eccentricity": 0.00204192,
        "meta_inclination": 98.7581,
        "meta_ra_of_asc_node": 4.4995,
        "meta_arg_of_pericenter": 257.7449,
        "meta_mean_anomaly": 220.5963,
        "meta_ephemeris_type": 0,
        "meta_classification_type": "U",
        "meta_norad_cat_id": 30077,
        "meta_element_set_no": 999,
        "meta_rev_at_epoch": 97143,
        "meta_bstar": 4.6913506e-05,
        "meta_mean_motion_dot": 3.6e-07,
        "meta_mean_motion_ddot": 0,
        "tle_line1": "1 30077U 99025QE  25348.91155187  .00000036  00000+0  46914-4 0  9997",
        "tle_line2": "2 30077  98.7581   4.4995 0020419 257.7449 220.5963 14.07080202971437"
      },
      "geometry": {
        "type": "Point",
        "coordinates": [
          56.47711436788354,
          -78.78833170598014
        ]
      }
    },
    {
      "type": "Feature",
      "properties": {
        "norad_id": 30078,
        "name": "FENGYUN 1C DEB",
        "group": "fengyun-1c-debris",
        "lat": -12.234627407590688,
        "lon": 66.67657467030753,
        "alt_km": 809.9481176437639,
        "timestamp": "2025-12-15T20:48:54.157103+00:00",
        "meta_object_name": "FENGYUN 1C DEB",
        "meta_object_id": "1999-025QF",
        "meta_epoch": "2025-12-14T20:06:22.343040",
        "meta_mean_motion": 14.23148233,
        "meta_eccentricity": 0.00527877,
        "meta_inclination": 98.8324,
        "meta_ra_of_asc_node": 63.7118,
        "meta_arg_of_pericenter": 274.3101,
        "meta_mean_anomaly": 201.1466,
        "meta_ephemeris_type": 0,
        "meta_classification_type": "U",
        "meta_norad_cat_id": 30078,
        "meta_element_set_no": 999,
        "meta_rev_at_epoch": 97143,
        "meta_bstar": 0.0010462895,
        "meta_mean_motion_dot": 2.352e-05,
        "meta_mean_motion_ddot": 0,
        "tle_line1": "1 30078U 99025QF  25348.83775860  .00002352  00000+0  10463-2 0  9996",
        "tle_line2": "2 30078  98.8324  63.7118 0052787 274.3101 201.1466 14.23148233971432"
      },
      "geometry": {
        "type": "Point",
        "coordinates": [
          66.67657467030753,
          -12.234627407590688
        ]
      }
    },
    {
      "type": "Feature",
      "properties": {
        "norad_id": 30079,
        "name": "FENGYUN 1C DEB",
        "group": "fengyun-1c-debris",
        "lat": -11.296414858873579,
        "lon": -136.45128947440327,
        "alt_km": 904.2933490126006,
        "timestamp": "2025-12-15T20:48:54.157113+00:00",
        "meta_object_name": "FENGYUN 1C DEB",
        "meta_object_id": "1999-025QG",
        "meta_epoch": "2025-12-14T22:28:23.429856",
        "meta_mean_motion": 14.00795363,
        "meta_eccentricity": 0.00846587,
        "meta_inclination": 99.0349,
        "meta_ra_of_asc_node": 44.4496,
        "meta_arg_of_pericenter": 292.8068,
        "meta_mean_anomaly": 247.5905,
        "meta_ephemeris_type": 0,
        "meta_classification_type": "U",
        "meta_norad_cat_id": 30079,
        "meta_element_set_no": 999,
        "meta_rev_at_epoch": 96568,
        "meta_bstar": 0.0001751438,
        "meta_mean_motion_dot": 2.25e-06,
        "meta_mean_motion_ddot": 0,
        "tle_line1": "1 30079U 99025QG  25348.93638229  .00000225  00000+0  17514-3 0  9997",
        "tle_line2": "2 30079  99.0349  44.4496 0084658 292.8068 247.5905 14.00795363965686"
      },
      "geometry": {
        "type": "Point",
        "coordinates": [
          -136.45128947440327,
          -11.296414858873579
        ]
      }
    }
  ]
}